$$SOE
2460147.500000000, A.D. 2023-Jul-22 00:00:00.0000, 2.938833897329177E+08, -2.273192754244979E+08, -1.348406277100690E+07,
2460154.500000000, A.D. 2023-Jul-29 00:00:00.0000, 2.998577005505824E+08, -2.164861727601169E+08, -1.355537294384392E+07,
2460161.500000000, A.D. 2023-Aug-05 00:00:00.0000, 3.055448269591042E+08, -2.054457309219347E+08, -1.361370051696429E+07,
2460168.500000000, A.D. 2023-Aug-12 00:00:00.0000, 3.109353899567335E+08, -1.942058779668829E+08, -1.365881432058312E+07,
2460175.500000000, A.D. 2023-Aug-19 00:00:00.0000, 3.160202229562354E+08, -1.827750641277593E+08, -1.369049764307171E+07,
2460182.500000000, A.D. 2023-Aug-26 00:00:00.0000, 3.207904073095170E+08, -1.711622603934001E+08, -1.370854947732687E+07,
2460189.500000000, A.D. 2023-Sep-02 00:00:00.0000, 3.252373086359003E+08, -1.593769544269927E+08, -1.371278576534650E+07,
2460196.500000000, A.D. 2023-Sep-09 00:00:00.0000, 3.293526137533553E+08, -1.474291436942464E+08, -1.370304063700490E+07,
2460203.500000000, A.D. 2023-Sep-16 00:00:00.0000, 3.331283681219699E+08, -1.353293257112846E+08, -1.367916765207199E+07,
2460210.500000000, A.D. 2023-Sep-23 00:00:00.0000, 3.365570139360164E+08, -1.230884850043824E+08, -1.364104104863435E+07,
2460217.500000000, A.D. 2023-Sep-30 00:00:00.0000, 3.396314282271672E+08, -1.107180755031336E+08, -1.358855685725094E+07,
2460224.500000000, A.D. 2023-Oct-07 00:00:00.0000, 3.423449583077616E+08, -9.822999886193487E+07, -1.352163369691520E+07,
2460231.500000000, A.D. 2023-Oct-14 00:00:00.0000, 3.446914552519809E+08, -8.563658201152572E+07, -1.344021360677851E+07,
2460238.500000000, A.D. 2023-Oct-21 00:00:00.0000, 3.466653082854873E+08, -7.295055235973711E+07, -1.334426306653651E+07,
2460245.500000000, A.D. 2023-Oct-28 00:00:00.0000, 3.482614782984890E+08, -6.018500844351374E+07, -1.323377387787608E+07,
2460252.500000000, A.D. 2023-Nov-04 00:00:00.0000, 3.494755288732885E+08, -4.735338690977915E+07, -1.310876384353138E+07,
2460259.500000000, A.D. 2023-Nov-11 00:00:00.0000, 3.503036546507565E+08, -3.446942657722808E+07, -1.296927729832235E+07,
2460266.500000000, A.D. 2023-Nov-18 00:00:00.0000, 3.507427069145326E+08, -2.154712984022280E+07, -1.281538550767735E+07,
2460273.500000000, A.D. 2023-Nov-25 00:00:00.0000, 3.507902161444708E+08, -8.600721632921856E+06, -1.264718692987375E+07,
2460280.500000000, A.D. 2023-Dec-02 00:00:00.0000, 3.504444112724066E+08, 4.355393752507752E+06, -1.246480733841375E+07,
2460287.500000000, A.D. 2023-Dec-09 00:00:00.0000, 3.497042354554773E+08, 1.730667761259196E+07, -1.226839981118258E+07,
2460294.500000000, A.D. 2023-Dec-16 00:00:00.0000, 3.485693584284598E+08, 3.023850319840417E+07, -1.205814460848456E+07,
2460301.500000000, A.D. 2023-Dec-23 00:00:00.0000, 3.470401855958092E+08, 4.313620380076672E+07, -1.183424891444099E+07,
2460308.500000000, A.D. 2023-Dec-30 00:00:00.0000, 3.451178623844146E+08, 5.598512319847084E+07, -1.159694623323857E+07,
2460315.500000000, A.D. 2024-Jan-06 00:00:00.0000, 3.428042720067263E+08, 6.877066568435156E+07, -1.134649547301779E+07,
2460322.500000000, A.D. 2024-Jan-13 00:00:00.0000, 3.401020297775556E+08, 8.147834342135996E+07, -1.108318016136917E+07,
2460329.500000000, A.D. 2024-Jan-20 00:00:00.0000, 3.370144752245552E+08, 9.409382377290793E+07, -1.080730765951603E+07,
2460336.500000000, A.D. 2024-Jan-27 00:00:00.0000, 3.335456600371260E+08, 1.066029768278302E+08, -1.051920814424032E+07,
2460343.500000000, A.D. 2024-Feb-03 00:00:00.0000, 3.297003315541954E+08, 1.189919217517664E+08, -1.021923340601595E+07,
2460350.500000000, A.D. 2024-Feb-10 00:00:00.0000, 3.254839122470682E+08, 1.312470712738615E+08, -9.907755524398796E+06,
2460357.500000000, A.D. 2024-Feb-17 00:00:00.0000, 3.209024755610082E+08, 1.433551739436397E+08, -9.585165445843011E+06,
2460364.500000000, A.D. 2024-Feb-24 00:00:00.0000, 3.159627184182408E+08, 1.553033538329359E+08, -9.251871480143897E+06,
2460371.500000000, A.D. 2024-Mar-02 00:00:00.0000, 3.106719307151272E+08, 1.670791473489689E+08, -8.908297735712714E+06,
2460378.500000000, A.D. 2024-Mar-09 00:00:00.0000, 3.050379622869303E+08, 1.786705368370837E+08, -8.554882526935920E+06,
2460385.500000000, A.D. 2024-Mar-16 00:00:00.0000, 2.990691880950012E+08, 1.900659809562461E+08, -8.192076789579943E+06,
2460392.500000000, A.D. 2024-Mar-23 00:00:00.0000, 2.927744719059106E+08, 2.012544427660942E+08, -7.820342420024313E+06,
2460399.500000000, A.D. 2024-Mar-30 00:00:00.0000, 2.861631265990757E+08, 2.122254153804535E+08, -7.440150349718332E+06,
2460406.500000000, A.D. 2024-Apr-06 00:00:00.0000, 2.792448717497805E+08, 2.229689417572111E+08, -7.051978667786568E+06,
2460413.500000000, A.D. 2024-Apr-13 00:00:00.0000, 2.720297924302297E+08, 2.334756294380179E+08, -6.656311063810736E+06,
2460420.500000000, A.D. 2024-Apr-20 00:00:00.0000, 2.645282986496152E+08, 2.437366629330584E+08, -6.253635298029378E+06,
2460427.500000000, A.D. 2024-Apr-27 00:00:00.0000, 2.567510842748701E+08, 2.537438132539752E+08, -5.844441617470413E+06,
2460434.500000000, A.D. 2024-May-04 00:00:00.0000, 2.487090858622685E+08, 2.634894439948798E+08, -5.429221194283485E+06,
2460441.500000000, A.D. 2024-May-11 00:00:00.0000, 2.404134419576756E+08, 2.729665139954037E+08, -5.008464626015976E+06,
2460448.500000000, A.D. 2024-May-18 00:00:00.0000, 2.318754532392479E+08, 2.821685767702268E+08, -4.582660511856720E+06,
2460455.500000000, A.D. 2024-May-25 00:00:00.0000, 2.231065437873342E+08, 2.910897768833258E+08, -4.152294114539027E+06,
2460462.500000000, A.D. 2024-Jun-01 00:00:00.0000, 2.141182237671077E+08, 2.997248434151478E+08, -3.717846123341992E+06,
2460469.500000000, A.D. 2024-Jun-08 00:00:00.0000, 2.049220539628636E+08, 3.080690807249740E+08, -3.279791546299204E+06,
2460476.500000000, A.D. 2024-Jun-15 00:00:00.0000, 1.955296127279333E+08, 3.161183572947863E+08, -2.838598726110160E+06,
2460483.500000000, A.D. 2024-Jun-22 00:00:00.0000, 1.859524644828106E+08, 3.238690940752780E+08, -2.394728293068647E+06,
2460490.500000000, A.D. 2024-Jun-29 00:00:00.0000, 1.762021277436979E+08, 3.313182507561895E+08, -1.948632009165630E+06,
2460497.500000000, A.D. 2024-Jul-06 00:00:00.0000, 1.662900454028157E+08, 3.384633077380832E+08, -1.500751946802542E+06,
2460504.500000000, A.D. 2024-Jul-13 00:00:00.0000, 1.562275592644930E+08, 3.453022468692929E+08, -1.051519949265689E+06,
2460511.500000000, A.D. 2024-Jul-20 00:00:00.0000, 1.460258868743406E+08, 3.518335323208361E+08, -6.013570950401872E+05,
2460518.500000000, A.D. 2024-Jul-27 00:00:00.0000, 1.356960999819653E+08, 3.580560908562030E+08, -1.506731811866313E+05,
2460525.500000000, A.D. 2024-Aug-03 00:00:00.0000, 1.252491048869214E+08, 3.639692913279670E+08, 3.001337220429778E+05,
2460532.500000000, A.D. 2024-Aug-10 00:00:00.0000, 1.146956247929751E+08, 3.695729235909083E+08, 7.506776336305141E+05,
2460539.500000000, A.D. 2024-Aug-17 00:00:00.0000, 1.040461841619044E+08, 3.748671770333236E+08, 1.200584942853481E+06,
2460546.500000000, A.D. 2024-Aug-24 00:00:00.0000, 9.331109502542083E+07, 3.798526188692306E+08, 1.649494609016418E+06,
2460553.500000000, A.D. 2024-Aug-31 00:00:00.0000, 8.250044529064338E+07, 3.845301722796652E+08, 2.097058268819183E+06,
2460560.500000000, A.D. 2024-Sep-07 00:00:00.0000, 7.162408931564063E+07, 3.889010946642916E+08, 2.542940232878834E+06,
2460567.500000000, A.D. 2024-Sep-14 00:00:00.0000, 6.069164074553302E+07, 3.929669571201109E+08, 2.986817449618459E+06,
2460574.500000000, A.D. 2024-Sep-21 00:00:00.0000, 4.971246548290314E+07, 3.967296256636866E+08, 3.428379660757542E+06,
2460581.500000000, A.D. 2024-Sep-28 00:00:00.0000, 3.869567420128350E+07, 4.001912410536618E+08, 3.867329534255117E+06,
2460588.500000000, A.D. 2024-Oct-05 00:00:00.0000, 2.765011796323806E+07, 4.033541972932692E+08, 4.303382443299592E+06,
2460595.500000000, A.D. 2024-Oct-12 00:00:00.0000, 1.658438647994052E+07, 4.062211218614399E+08, 4.736266172140777E+06,
2460602.500000000, A.D. 2024-Oct-19 00:00:00.0000, 5.506807159978523E+06, 4.087948574523869E+08, 5.165720691379458E+06,
2460609.500000000, A.D. 2024-Oct-26 00:00:00.0000, -5.574555186477746E+06, 4.110784444618268E+08, 5.591497944426864E+06,
2460616.500000000, A.D. 2024-Nov-02 00:00:00.0000, -1.665189782936819E+07, 4.130751041025181E+08, 6.013361613410950E+06,
2460623.500000000, A.D. 2024-Nov-09 00:00:00.0000, -2.771767878432455E+07, 4.147882221922753E+08, 6.431086861098915E+06,
2460630.500000000, A.D. 2024-Nov-16 00:00:00.0000, -3.876461472661645E+07, 4.162213336291231E+08, 6.844460049976915E+06,
2460637.500000000, A.D. 2024-Nov-23 00:00:00.0000, -4.978567819238488E+07, 4.173781075108292E+08, 7.253278433367193E+06,
2460644.500000000, A.D. 2024-Nov-30 00:00:00.0000, -6.077409394003232E+07, 4.182623328569318E+08, 7.657349799036294E+06,
2460651.500000000, A.D. 2024-Dec-07 00:00:00.0000, -7.172333412882403E+07, 4.188779053494707E+08, 8.056492064019263E+06,
2460658.500000000, A.D. 2024-Dec-14 00:00:00.0000, -8.262711307452288E+07, 4.192288163085328E+08, 8.450532986352354E+06,
2460665.500000000, A.D. 2024-Dec-21 00:00:00.0000, -9.347938396444111E+07, 4.193191426487318E+08, 8.839310107134491E+06,
2460672.500000000, A.D. 2024-Dec-28 00:00:00.0000, -1.042743356191530E+08, 4.191530348276280E+08, 9.222670501773834E+06,
2460679.500000000, A.D. 2025-Jan-04 00:00:00.0000, -1.150063867626759E+08, 4.187347051413772E+08, 9.600470298544794E+06,
2460686.500000000, A.D. 2025-Jan-11 00:00:00.0000, -1.256701796742440E+08, 4.180684180081304E+08, 9.972574268689990E+06,
2460693.500000000, A.D. 2025-Jan-18 00:00:00.0000, -1.362605741844468E+08, 4.171584812961327E+08, 1.033885549851745E+07,
2460700.500000000, A.D. 2025-Jan-25 00:00:00.0000, -1.467726418148759E+08, 4.160092381957759E+08, 1.069919508379552E+07,
2460707.500000000, A.D. 2025-Feb-01 00:00:00.0000, -1.572016599102366E+08, 4.146250595792066E+08, 1.105348182786787E+07,
2460714.500000000, A.D. 2025-Feb-08 00:00:00.0000, -1.675431057384145E+08, 4.130103368401551E+08, 1.140161194084254E+07,
$$EOE